#cP2023  3 13  0  0  0.00000000      96 ORBIT IGS20 HLM  IGS
## 2253  86400.00000000   900.00000000 60016 0.0000000000000
+   32   G01G02G03G04G05G06G07G08G09G10G11G12G13G14G15G16G17
+        G18G19G20G21G22G23G24G25G26G27G28G29G30G31G32  0  0
+          0  0  0  0  0  0  0  0  0  0  0  0  0  0  0  0  0
+          0  0  0  0  0  0  0  0  0  0  0  0  0  0  0  0  0
+          0  0  0  0  0  0  0  0  0  0  0  0  0  0  0  0  0
++         2  2  2  2  2  2  2  2  2  2  2  2  2  2  2  2  2
++         2  2  2  3  3  2  2  2  2  2  3  2  2  2  2  0  0
++         0  0  0  0  0  0  0  0  0  0  0  0  0  0  0  0  0
++         0  0  0  0  0  0  0  0  0  0  0  0  0  0  0  0  0
++         0  0  0  0  0  0  0  0  0  0  0  0  0  0  0  0  0
%c G  cc GPS ccc cccc cccc cccc cccc ccccc ccccc ccccc ccccc
%c cc cc ccc ccc cccc cccc cccc cccc ccccc ccccc ccccc ccccc
%f  1.2500000  1.025000000  0.00000000000  0.000000000000000
%f  0.0000000  0.000000000  0.00000000000  0.000000000000000
%i    0    0    0    0      0      0      0      0         0
%i    0    0    0    0      0      0      0      0         0
/* RAPID ORBIT COMBINATION FROM WEIGHTED AVERAGE OF:        
/* cod emr esa gfz grg jpl ngs sio usn whu                  
/* REFERENCED TO IGS TIME (IGST) AND TO WEIGHTED MEAN POLE: 
/* PCV:IGS20_2233 OL/AL:FES2014b NONE     Y  ORB:CMB CLK:CMB
*  2023  3 13 15 45  0.00000000
PG01   6479.414955 -17732.546976 -18850.093593    203.197412  3  6  4  78       
PG02  -2004.009271  18123.772461  20017.106339   -614.621406  5  5  4 111       
PG03  -4358.389081 -17708.382494 -19474.786797   -350.440782  7  6  2  95       
PG04    197.008351 -26476.124528   1099.002241     -7.960138  7 10  3  93       
PG05 -12218.322228  10155.840133  21133.634356   -119.316847  6  6  5 108       
PG06 -22967.825289   3159.705884 -12981.193323    580.918525  7  6  5  95       
PG07  -8610.331535 -13088.278190  21899.747197    223.888255  5  8  5 105       
PG08   7068.726787 -22934.614627  10870.482895   -112.733502  6  7    100       
PG09  -8215.940786 -22677.779201  10996.047619   -201.394625  6  6  4  89       
PG10  24039.524746  11056.691467  -3600.740417    -28.386754  3  4  6  81       
PG11 -23602.394851  12142.237121    164.804203   -129.229641  8  9  5  75       
PG12    922.916037  17531.115492 -20241.147341   -351.044553  7  4  2 101       
PG13 -12935.481617  17262.130840  15188.189897    489.887104  7  9  5 124       
PG14 -23048.030418 -13283.396394  -1304.580219     -4.966934  7  7  5  71       
PG15  -4133.184070  23967.880813   9893.857060     21.216197  6  8  4  88       
PG16  15551.584224  -6300.624105  20391.602025   -515.621337  7  6  3 112       
PG17 -12794.267911 -11269.405022 -19908.206315    705.247758  7  7  3 113       
PG18  11949.828643  10096.678543  21486.228479   -178.010969  5  6  4 111       
PG19 -15046.915902   -431.589695 -22101.289932    289.517305  6  9  4 109       
PG20 -20699.757099   4481.411724  15938.514856    445.272465  7  7  6  98       
PG21  13655.595659 -18980.889045 -11182.986867    154.325534  7  9  7  81       
PG22  15055.428717  -3830.323370 -21079.839646    444.468127  8  8  4  82       
PG23  19472.410433  16481.441396   7662.749591     10.422375  6  5  8  94       
PG24  -9076.330008  19921.213469 -15095.910770   -110.112673  6  7  5 107       
PG25  11920.821487  18880.144506 -14904.083046    427.371935  6  2  6 100       
PG26  23801.215876   2008.770856  11851.518378    241.958210  6  6  5  87       
PG27  12655.080552 -13786.313043  18435.581557     81.986593  7  4  5 102       
PG28  22207.122659  -1959.124001 -14463.286347     41.882302  8  5  8  94       
PG29   3685.144531  24892.043239   8320.227845   -590.647351  5  5  3  85       
PG30 -19592.104096  -3959.118402  17713.880527   -527.049611  7  5  5  94       
PG31  24321.990197  -5065.761879 -10177.728121   -211.496291  6  4  5  98       
PG32  14539.858221   7839.202736 -20669.148905   -422.295223  6  2  5 106       
*  2023  3 13 16  0  0.00000000
PG01   8259.119574 -18665.387065 -17115.306491    203.194026  4  5  4  81       
PG02  -3734.775883  19287.399485  18607.365750   -614.618754  5  6  4  95       
PG03  -2325.910136 -16705.672149 -20669.911346   -350.434858  7  6  2 101       
PG04    455.861642 -26435.837991  -1766.807847     -7.952357  7 10  4  80       
PG05 -14353.618864   9054.151584  20292.285089   -119.318348  6  7  5 104       
PG06 -21655.195782   2208.559470 -15220.114674    580.921195  7  6  6 101       
PG07  -6543.049731 -14328.910735  21793.166249    223.881364  6  8  5 111       
PG08   7389.912758 -21547.475350  13257.711707   -112.734206  6  7     96       
PG09  -8029.671202 -23813.402219   8451.941813   -201.387870  7  6  4  89       
PG10  24186.809446  11344.542680   -744.733948    -28.388877  2  5  7  80       
PG11 -23592.899953  11856.905753  -2696.760355   -129.239878  8  9  6  87       
PG12  -1069.297717  16359.544019 -21196.926492   -351.048696  7  4  2 101       
PG13 -12903.865636  15371.461510  17119.728757    489.892060  8  9  5 127       
PG14 -22898.495662 -13518.245775   1520.042133     -4.957826  7  8  5 100       
PG15  -4670.585349  22695.515131  12285.813366     21.219629  6  9  4  83       
PG16  17442.339042  -4960.217654  19257.237062   -515.619506  7  6  4  94       
PG17 -12610.552144 -13550.315153 -18578.967211    705.249776  7  7  3 111       
PG18   9833.992727  11384.415719  21898.371686   -178.025690  5  6  5 102       
PG19 -14867.065770  -2898.183481 -22060.902503    289.521963  6  9  4 116       
PG20 -22249.904331   3721.600837  13892.816795    445.270646  7  7  6 110       
PG21  14821.167273 -19480.252706  -8604.671545    154.325607  8 10  6  58       
PG22  14965.979828  -1301.863377 -21455.391851    444.474540  8  9  6  83       
PG23  18473.219515  16197.312832  10281.739171     10.424182  6  5  8  96       
PG24 -10497.029578  20649.334973 -12961.325030   -110.126436  6  8  5 115       
PG25  10286.864525  18213.660020 -16840.575828    427.374715  6  1  6 104       
PG26  24808.837193   2758.827764   9440.380820    241.958251  6  6  6  70       
PG27  12865.923209 -11547.221528  19798.538535     81.979009  7  3  6 104       
PG28  20838.983592   -829.662280 -16473.103023     41.891731  7  4  8 112       
PG29   3445.673767  25683.518824   5575.449289   -590.648926  6  5  3  86       
PG30 -17883.269096  -5171.113390  19135.561570   -527.048298  6  5  5  83       
PG31  23332.463625  -4253.065851 -12579.987736   -211.496987  6  3  6  96       
PG32  14544.943789  10177.695367 -19647.037067   -422.305049  5  2  4 100       
*  2023  3 13 16 15  0.00000000
PG01   9811.906550 -19578.723670 -15088.555900    203.190607  5  4  4  72       
PG02  -5268.874638  20434.271613  16894.774173   -614.616426  5  7  5  98       
PG03   -136.391921 -15768.307928 -21514.058771   -350.429033  6  6  1 100       
PG04    734.414364 -26085.864490  -4601.996819     -7.944603  8 10  4  90       
PG05 -16434.808115   8110.648225  19097.522548   -119.320083  6  7  5 110       
PG06 -20201.488784   1047.057574 -17197.122467    580.923889  7  5  6 106       
PG07  -4564.286847 -15659.183842  21325.190663    223.874693  6  7  4 116       
PG08   7810.608510 -19921.852671  15411.473939   -112.736437  6  7  1 108       
PG09  -7869.245380 -24661.759056   5761.602419   -201.381152  7  6  4  96       
PG10  24057.366423  11488.136748   2123.874972    -28.390958  2  5  7  86       
PG11 -23326.307103  11399.693275  -5511.814986   -129.250028  7  9  6  88       
PG12  -3197.788705  15254.732493 -21797.536114   -351.052715  7  5  1 106       
PG13 -12962.669730  13278.397638  18750.582899    489.897317  8  8  5 125       
PG14 -22478.122931 -13617.688279   4318.716960     -4.948690  6  8  5 101       
PG15  -5326.845950  21193.111906  14458.164115     21.222708  7  9  2 101       
PG16  19268.368595  -3798.880694  17787.389373   -515.617645  7  5  4 101       
PG17 -12544.227742 -15663.503396 -16917.683099    705.251765  7  6  4 110       
PG18   7768.875577  12799.954343  21934.047551   -178.040404  5  6  5  91       
PG19 -14823.547797  -5343.126501 -21649.352114    289.526885  6  9  3 118       
PG20 -23600.040391   3103.818262  11606.236646    445.268303  6  7  6 103       
PG21  15720.196193 -19839.067071  -5867.491434    154.325832  8 10  7  68       
PG22  15005.824246   1247.652073 -21446.019913    444.481275  8  9  6  91       
PG23  17196.656058  15855.611902  12725.218731     10.426088  7  5  8  74       
PG24 -11692.221641  21281.751873 -10603.299332   -110.140217  7  8  4  99       
PG25   8438.296459  17550.780469 -18496.663081    427.377501  6  2  6 107       
PG26  25590.322133   3356.317347   6869.053944    241.958284  6  6  6  78       
PG27  13205.594030  -9188.708734  20810.004707     81.971415  7  3  7 106       
PG28  19363.555588    497.389429 -18199.959367     41.901060  7  4  8 105       
PG29   3245.220770  26169.126216   2734.125170   -590.650659  6  6  3  76       
PG30 -16117.981929  -6545.941862  20232.971684   -527.046961  5  4  5  85       
PG31  22173.552042  -3246.498863 -14772.581100   -211.497678  6  3  6 107       
PG32  14657.836430  12375.283216 -18283.735759   -422.314885  5  3  4 102       
EOF
